[{"OBJECT_NAME":"DAMPE","OBJECT_ID":"2015-078A","EPOCH":"2026-03-09T23:55:00.527232","MEAN_MOTION":15.30502084,"ECCENTRICITY":0.00138005,"INCLINATION":97.4588,"RA_OF_ASC_NODE":73.9866,"ARG_OF_PERICENTER":70.6942,"MEAN_ANOMALY":289.579,"EPHEMERIS_TYPE":0,"CLASSIFICATION_TYPE":"U","NORAD_CAT_ID":41173,"ELEMENT_SET_NO":999,"REV_AT_EPOCH":56937,"BSTAR":9.1158173e-5,"MEAN_MOTION_DOT":2.617e-5,"MEAN_MOTION_DDOT":0},{"OBJECT_NAME":"STARLINK-32440","OBJECT_ID":"2024-196H","EPOCH":"2026-03-09T22:25:10.464960","MEAN_MOTION":15.30184821,"ECCENTRICITY":0.00011039,"INCLINATION":53.1607,"RA_OF_ASC_NODE":100.2285,"ARG_OF_PERICENTER":107.4403,"MEAN_ANOMALY":252.6719,"EPHEMERIS_TYPE":0,"CLASSIFICATION_TYPE":"U","NORAD_CAT_ID":61714,"ELEMENT_SET_NO":999,"REV_AT_EPOCH":7719,"BSTAR":5.5488722e-5,"MEAN_MOTION_DOT":1.284e-5,"MEAN_MOTION_DDOT":0}]
